{"type": "FeatureCollection", "features": [ {"type": "Feature", "properties": {"norad_id": 39620, "name": "COSMOS 2492 (754)", "group": "gnss", "lat": 55.028008318070945, "lon": 98.9320631011264, "alt_km": 19158.13420124859, "timestamp": "2025-12-25T20:42:38.932271+00:00", "meta": {"OBJECT_NAME": "COSMOS 2492 (754)", "OBJECT_ID": "2014-012A", "EPOCH": "2025-12-24T18:34:00.043104", "MEAN_MOTION": 2.13103196, "ECCENTRICITY": 0.0014265, "INCLINATION": 65.401, "RA_OF_ASC_NODE": 319.8627, "ARG_OF_PERICENTER": 314.554, "MEAN_ANOMALY": 45.3312, "EPHEMERIS_TYPE": 0, "CLASSIFICATION_TYPE": "U", "NORAD_CAT_ID": 39620, "ELEMENT_SET_NO": 999, "REV_AT_EPOCH": 9152, "BSTAR": 0, "MEAN_MOTION_DOT": -3.2e-07, "MEAN_MOTION_DDOT": 0}, "tle": {"line1": "1 39620U 14012A   25358.77361161 -.00000032  00000+0  00000+0 0  9997", "line2": "2 39620  65.4010 319.8627 0014265 314.5540  45.3312  2.13103196 91525"}}, "geometry": {"type": "Point", "coordinates": [98.9320631011264, 55.028008318070945]}}, {"type": "Feature", "properties": {"norad_id": 39635, "name": "IRNSS-1B", "group": "gnss", "lat": -17.125262866598106, "lon": 96.83493813235769, "alt_km": 35730.098410890176, "timestamp": "2025-12-25T20:42:38.932282+00:00", "meta": {"OBJECT_NAME": "IRNSS-1B", "OBJECT_ID": "2014-017A", "EPOCH": "2025-12-24T18:29:47.559840", "MEAN_MOTION": 1.00272104, "ECCENTRICITY": 0.00185731, "INCLINATION": 29.2343, "RA_OF_ASC_NODE": 243.3872, "ARG_OF_PERICENTER": 174.7097, "MEAN_ANOMALY": 8.021, "EPHEMERIS_TYPE": 0, "CLASSIFICATION_TYPE": "U", "NORAD_CAT_ID": 39635, "ELEMENT_SET_NO": 999, "REV_AT_EPOCH": 4304, "BSTAR": 0, "MEAN_MOTION_DOT": 1.4e-06, "MEAN_MOTION_DDOT": 0}, "tle": {"line1": "1 39635U 14017A   25358.77068935  .00000140  00000+0  00000+0 0  9990", "line2": "2 39635  29.2343 243.3872 0018573 174.7097   8.0210  1.00272104 43048"}}, "geometry": {"type": "Point", "coordinates": [96.83493813235769, -17.125262866598106]}}, {"type": "Feature", "properties": {"norad_id": 39727, "name": "LUCH 5V (SDCM/PRN 141)", "group": "gnss", "lat": 4.3918650371812795, "lon": 139.93174652824342, "alt_km": 35798.0776831481, "timestamp": "2025-12-25T20:42:38.932294+00:00", "meta": {"OBJECT_NAME": "LUCH 5V (SDCM/PRN 141)", "OBJECT_ID": "2014-023A", "EPOCH": "2025-12-25T05:10:38.820576", "MEAN_MOTION": 1.00274119, "ECCENTRICITY": 0.0003748, "INCLINATION": 4.6992, "RA_OF_ASC_NODE": 71.4323, "ARG_OF_PERICENTER": 214.6327, "MEAN_ANOMALY": 340.3172, "EPHEMERIS_TYPE": 0, "CLASSIFICATION_TYPE": "U", "NORAD_CAT_ID": 39727, "ELEMENT_SET_NO": 999, "REV_AT_EPOCH": 4261, "BSTAR": 0, "MEAN_MOTION_DOT": -2.5e-06, "MEAN_MOTION_DDOT": 0}, "tle": {"line1": "1 39727U 14023A   25359.21572709 -.00000250  00000+0  00000+0 0  9991", "line2": "2 39727   4.6992  71.4323 0003748 214.6327 340.3172  1.00274119 42615"}}, "geometry": {"type": "Point", "coordinates": [139.93174652824342, 4.3918650371812795]}}, {"type": "Feature", "properties": {"norad_id": 39741, "name": "GPS BIIF-6  (PRN 06)", "group": "gnss", "lat": -50.461060782282544, "lon": -74.84670353082647, "alt_km": 20094.324706372325, "timestamp": "2025-12-25T20:42:38.932305+00:00", "meta": {"OBJECT_NAME": "GPS BIIF-6  (PRN 06)", "OBJECT_ID": "2014-026A", "EPOCH": "2025-12-24T23:00:25.010784", "MEAN_MOTION": 2.00560429, "ECCENTRICITY": 0.00394828, "INCLINATION": 56.5788, "RA_OF_ASC_NODE": 338.3014, "ARG_OF_PERICENTER": 319.3723, "MEAN_ANOMALY": 40.3399, "EPHEMERIS_TYPE": 0, "CLASSIFICATION_TYPE": "U", "NORAD_CAT_ID": 39741, "ELEMENT_SET_NO": 999, "REV_AT_EPOCH": 8504, "BSTAR": 0, "MEAN_MOTION_DOT": -5.8e-07, "MEAN_MOTION_DDOT": 0}, "tle": {"line1": "1 39741U 14026A   25358.95862281 -.00000058  00000+0  00000+0 0  9993", "line2": "2 39741  56.5788 338.3014 0039482 319.3723  40.3399  2.00560429 85044"}}, "geometry": {"type": "Point", "coordinates": [-74.84670353082647, -50.461060782282544]}}, {"type": "Feature", "properties": {"norad_id": 40001, "name": "COSMOS 2500 (755)", "group": "gnss", "lat": -14.72916693326745, "lon": -47.36044730543382, "alt_km": 19143.01824454423, "timestamp": "2025-12-25T20:42:38.932318+00:00", "meta": {"OBJECT_NAME": "COSMOS 2500 (755)", "OBJECT_ID": "2014-032A", "EPOCH": "2025-12-24T22:41:43.592352", "MEAN_MOTION": 2.13106238, "ECCENTRICITY": 0.0007709, "INCLINATION": 65.3365, "RA_OF_ASC_NODE": 319.6177, "ARG_OF_PERICENTER": 219.4903, "MEAN_ANOMALY": 140.4561, "EPHEMERIS_TYPE": 0, "CLASSIFICATION_TYPE": "U", "NORAD_CAT_ID": 40001, "ELEMENT_SET_NO": 999, "REV_AT_EPOCH": 8974, "BSTAR": 0, "MEAN_MOTION_DOT": -3.2e-07, "MEAN_MOTION_DDOT": 0}, "tle": {"line1": "1 40001U 14032A   25358.94564343 -.00000032  00000+0  00000+0 0  9990", "line2": "2 40001  65.3365 319.6177 0007709 219.4903 140.4561  2.13106238 89745"}}, "geometry": {"type": "Point", "coordinates": [-47.36044730543382, -14.72916693326745]}}, {"type": "Feature", "properties": {"norad_id": 40105, "name": "GPS BIIF-7  (PRN 09)", "group": "gnss", "lat": -39.74620556137262, "lon": -49.39638627353072, "alt_km": 20216.46840198014, "timestamp": "2025-12-25T20:42:38.932344+00:00", "meta": {"OBJECT_NAME": "GPS BIIF-7  (PRN 09)", "OBJECT_ID": "2014-045A", "EPOCH": "2025-12-23T13:11:32.096256", "MEAN_MOTION": 2.00573211, "ECCENTRICITY": 0.00324114, "INCLINATION": 55.2352, "RA_OF_ASC_NODE": 95.4677, "ARG_OF_PERICENTER": 120.1575, "MEAN_ANOMALY": 240.1743, "EPHEMERIS_TYPE": 0, "CLASSIFICATION_TYPE": "U", "NORAD_CAT_ID": 40105, "ELEMENT_SET_NO": 999, "REV_AT_EPOCH": 8255, "BSTAR": 0, "MEAN_MOTION_DOT": 8e-08, "MEAN_MOTION_DDOT": 0}, "tle": {"line1": "1 40105U 14045A   25357.54967704  .00000008  00000+0  00000+0 0  9994", "line2": "2 40105  55.2352  95.4677 0032411 120.1575 240.1743  2.00573211 82556"}}, "geometry": {"type": "Point", "coordinates": [-49.39638627353072, -39.74620556137262]}}, {"type": "Feature", "properties": {"norad_id": 40128, "name": "GSAT0201 (GALILEO 5)", "group": "gnss", "lat": -0.1935904522230294, "lon": -79.64354394587032, "alt_km": 26173.01377180117, "timestamp": "2025-12-25T20:42:38.932357+00:00", "meta": {"OBJECT_NAME": "GSAT0201 (GALILEO 5)", "OBJECT_ID": "2014-050A", "EPOCH": "2025-12-24T05:54:59.332320", "MEAN_MOTION": 1.85519669, "ECCENTRICITY": 0.16490328, "INCLINATION": 49.0634, "RA_OF_ASC_NODE": 280.5946, "ARG_OF_PERICENTER": 172.7103, "MEAN_ANOMALY": 190.0774, "EPHEMERIS_TYPE": 0, "CLASSIFICATION_TYPE": "U", "NORAD_CAT_ID": 40128, "ELEMENT_SET_NO": 999, "REV_AT_EPOCH": 7507, "BSTAR": 0, "MEAN_MOTION_DOT": -3.7e-07, "MEAN_MOTION_DDOT": 0}, "tle": {"line1": "1 40128U 14050A   25358.24652005 -.00000037  00000+0  00000+0 0  9991", "line2": "2 40128  49.0634 280.5946 1649032 172.7103 190.0774  1.85519669 75070"}}, "geometry": {"type": "Point", "coordinates": [-79.64354394587032, -0.1935904522230294]}}, {"type": "Feature", "properties": {"norad_id": 40129, "name": "GSAT0202 (GALILEO 6)", "group": "gnss", "lat": -13.550349418402199, "lon": 111.65929437356435, "alt_km": 17280.227794642244, "timestamp": "2025-12-25T20:42:38.932369+00:00", "meta": {"OBJECT_NAME": "GSAT0202 (GALILEO 6)", "OBJECT_ID": "2014-050B", "EPOCH": "2025-12-23T23:07:46.341984", "MEAN_MOTION": 1.85520106, "ECCENTRICITY": 0.16495716, "INCLINATION": 49.08, "RA_OF_ASC_NODE": 279.6897, "ARG_OF_PERICENTER": 173.4584, "MEAN_ANOMALY": 189.053, "EPHEMERIS_TYPE": 0, "CLASSIFICATION_TYPE": "U", "NORAD_CAT_ID": 40129, "ELEMENT_SET_NO": 999, "REV_AT_EPOCH": 7723, "BSTAR": 0, "MEAN_MOTION_DOT": -3.5e-07, "MEAN_MOTION_DDOT": 0}, "tle": {"line1": "1 40129U 14050B   25357.96373081 -.00000035  00000+0  00000+0 0  9992", "line2": "2 40129  49.0800 279.6897 1649571 173.4584 189.0530  1.85520106 77235"}}, "geometry": {"type": "Point", "coordinates": [111.65929437356435, -13.550349418402199]}}, {"type": "Feature", "properties": {"norad_id": 40269, "name": "IRNSS-1C", "group": "gnss", "lat": 3.591274333861041, "lon": 128.26347134329498, "alt_km": 35722.49989128659, "timestamp": "2025-12-25T20:42:38.932381+00:00", "meta": {"OBJECT_NAME": "IRNSS-1C", "OBJECT_ID": "2014-061A", "EPOCH": "2025-12-24T20:28:51.564576", "MEAN_MOTION": 1.00273291, "ECCENTRICITY": 0.00181022, "INCLINATION": 6.0727, "RA_OF_ASC_NODE": 92.3786, "ARG_OF_PERICENTER": 0.8988, "MEAN_ANOMALY": 30.5756, "EPHEMERIS_TYPE": 0, "CLASSIFICATION_TYPE": "U", "NORAD_CAT_ID": 40269, "ELEMENT_SET_NO": 999, "REV_AT_EPOCH": 4094, "BSTAR": 0, "MEAN_MOTION_DOT": -1.43e-06, "MEAN_MOTION_DDOT": 0}, "tle": {"line1": "1 40269U 14061A   25358.85337459 -.00000143  00000+0  00000+0 0  9997", "line2": "2 40269   6.0727  92.3786 0018102   0.8988  30.5756  1.00273291 40943"}}, "geometry": {"type": "Point", "coordinates": [128.26347134329498, 3.591274333861041]}}, {"type": "Feature", "properties": {"norad_id": 40294, "name": "GPS BIIF-8  (PRN 03)", "group": "gnss", "lat": -33.972350935351564, "lon": 11.557128011037797, "alt_km": 20243.085522914524, "timestamp": "2025-12-25T20:42:38.932393+00:00", "meta": {"OBJECT_NAME": "GPS BIIF-8  (PRN 03)", "OBJECT_ID": "2014-068A", "EPOCH": "2025-12-23T10:16:22.808064", "MEAN_MOTION": 2.00565491, "ECCENTRICITY": 0.00608386, "INCLINATION": 56.8656, "RA_OF_ASC_NODE": 37.7327, "ARG_OF_PERICENTER": 68.9718, "MEAN_ANOMALY": 291.747, "EPHEMERIS_TYPE": 0, "CLASSIFICATION_TYPE": "U", "NORAD_CAT_ID": 40294, "ELEMENT_SET_NO": 999, "REV_AT_EPOCH": 8168, "BSTAR": 0, "MEAN_MOTION_DOT": -4.8e-07, "MEAN_MOTION_DDOT": 0}, "tle": {"line1": "1 40294U 14068A   25357.42804176 -.00000048  00000+0  00000+0 0  9993", "line2": "2 40294  56.8656  37.7327 0060838  68.9718 291.7470  2.00565491 81685"}}, "geometry": {"type": "Point", "coordinates": [11.557128011037797, -33.972350935351564]}}]}